{
  "links" : {
    "next" : "https://api.nasa.gov/neo/rest/v1/feed?start_date=1997-04-16&end_date=1997-04-16&detailed=true&api_key=t0TVs3DtDT2H8Oy2Zy8m2eVrNsAVKAexjcZXUckd",
    "prev" : "https://api.nasa.gov/neo/rest/v1/feed?start_date=1997-04-14&end_date=1997-04-14&detailed=true&api_key=t0TVs3DtDT2H8Oy2Zy8m2eVrNsAVKAexjcZXUckd",
    "self" : "https://api.nasa.gov/neo/rest/v1/feed?start_date=1997-04-15&end_date=1997-04-15&detailed=true&api_key=t0TVs3DtDT2H8Oy2Zy8m2eVrNsAVKAexjcZXUckd"
  },
  "element_count" : 4,
  "near_earth_objects" : {
    "1997-04-15" : [ {
      "links" : {
        "self" : "https://api.nasa.gov/neo/rest/v1/neo/2277810?api_key=t0TVs3DtDT2H8Oy2Zy8m2eVrNsAVKAexjcZXUckd"
      },
      "neo_reference_id" : "2277810",
      "name" : "277810 (2006 FV35)",
      "nasa_jpl_url" : "http://ssd.jpl.nasa.gov/sbdb.cgi?sstr=2277810",
      "absolute_magnitude_h" : 21.8,
      "estimated_diameter" : {
        "kilometers" : {
          "estimated_diameter_min" : 0.1160259082,
          "estimated_diameter_max" : 0.2594418179
        },
        "meters" : {
          "estimated_diameter_min" : 116.0259082094,
          "estimated_diameter_max" : 259.4418179074
        },
        "miles" : {
          "estimated_diameter_min" : 0.0720951346,
          "estimated_diameter_max" : 0.1612096218
        },
        "feet" : {
          "estimated_diameter_min" : 380.6624406898,
          "estimated_diameter_max" : 851.1870938635
        }
      },
      "is_potentially_hazardous_asteroid" : false,
      "close_approach_data" : [ {
        "close_approach_date" : "1997-04-15",
        "epoch_date_close_approach" : 861087600000,
        "relative_velocity" : {
          "kilometers_per_second" : "9.129167377",
          "kilometers_per_hour" : "32865.0025571733",
          "miles_per_hour" : "20421.0345055947"
        },
        "miss_distance" : {
          "astronomical" : "0.303361434",
          "lunar" : "118.007598877",
          "kilometers" : "45382228",
          "miles" : "28199208"
        },
        "orbiting_body" : "Earth"
      } ],
      "orbital_data" : {
        "orbit_id" : "51",
        "orbit_determination_date" : "2017-04-06 09:24:24",
        "orbit_uncertainty" : "1",
        "minimum_orbit_intersection" : ".104736",
        "jupiter_tisserand_invariant" : "6.003",
        "epoch_osculation" : "2458000.5",
        "eccentricity" : ".3775352983208624",
        "semi_major_axis" : "1.001342942840337",
        "inclination" : "7.104126563177385",
        "ascending_node_longitude" : "179.5057827726986",
        "orbital_period" : "365.9929240029879",
        "perihelion_distance" : ".6233006361936202",
        "perihelion_argument" : "170.8521652770838",
        "aphelion_distance" : "1.379385249487054",
        "perihelion_time" : "2457994.548482506686",
        "mean_anomaly" : "5.854064811306019",
        "mean_motion" : ".983625574130119",
        "equinox" : "J2000"
      }
    }, {
      "links" : {
        "self" : "https://api.nasa.gov/neo/rest/v1/neo/2438105?api_key=t0TVs3DtDT2H8Oy2Zy8m2eVrNsAVKAexjcZXUckd"
      },
      "neo_reference_id" : "2438105",
      "name" : "438105 (2005 GO22)",
      "nasa_jpl_url" : "http://ssd.jpl.nasa.gov/sbdb.cgi?sstr=2438105",
      "absolute_magnitude_h" : 18.7,
      "estimated_diameter" : {
        "kilometers" : {
          "estimated_diameter_min" : 0.4836764882,
          "estimated_diameter_max" : 1.0815335068
        },
        "meters" : {
          "estimated_diameter_min" : 483.6764882185,
          "estimated_diameter_max" : 1081.533506775
        },
        "miles" : {
          "estimated_diameter_min" : 0.3005425432,
          "estimated_diameter_max" : 0.6720335566
        },
        "feet" : {
          "estimated_diameter_min" : 1586.8651696069,
          "estimated_diameter_max" : 3548.3383903678
        }
      },
      "is_potentially_hazardous_asteroid" : true,
      "close_approach_data" : [ {
        "close_approach_date" : "1997-04-15",
        "epoch_date_close_approach" : 861087600000,
        "relative_velocity" : {
          "kilometers_per_second" : "32.3295137373",
          "kilometers_per_hour" : "116386.2494543448",
          "miles_per_hour" : "72317.8892790066"
        },
        "miss_distance" : {
          "astronomical" : "0.1492933726",
          "lunar" : "58.0751228333",
          "kilometers" : "22333972",
          "miles" : "13877687"
        },
        "orbiting_body" : "Earth"
      } ],
      "orbital_data" : {
        "orbit_id" : "64",
        "orbit_determination_date" : "2017-04-06 09:20:37",
        "orbit_uncertainty" : "0",
        "minimum_orbit_intersection" : ".018997",
        "jupiter_tisserand_invariant" : "3.406",
        "epoch_osculation" : "2458000.5",
        "eccentricity" : ".8239928307470803",
        "semi_major_axis" : "1.913510121589507",
        "inclination" : "1.585118847175491",
        "ascending_node_longitude" : "62.02461378230738",
        "orbital_period" : "966.8176552524025",
        "perihelion_distance" : ".3367914998377793",
        "perihelion_argument" : "18.73188176885759",
        "aphelion_distance" : "3.490228743341235",
        "perihelion_time" : "2458253.099119401093",
        "mean_anomaly" : "265.9432950046271",
        "mean_motion" : ".3723556329823295",
        "equinox" : "J2000"
      }
    }, {
      "links" : {
        "self" : "https://api.nasa.gov/neo/rest/v1/neo/3329605?api_key=t0TVs3DtDT2H8Oy2Zy8m2eVrNsAVKAexjcZXUckd"
      },
      "neo_reference_id" : "3329605",
      "name" : "(2006 GU2)",
      "nasa_jpl_url" : "http://ssd.jpl.nasa.gov/sbdb.cgi?sstr=3329605",
      "absolute_magnitude_h" : 27.8,
      "estimated_diameter" : {
        "kilometers" : {
          "estimated_diameter_min" : 0.0073207399,
          "estimated_diameter_max" : 0.016369672
        },
        "meters" : {
          "estimated_diameter_min" : 7.3207398935,
          "estimated_diameter_max" : 16.3696720474
        },
        "miles" : {
          "estimated_diameter_min" : 0.0045488955,
          "estimated_diameter_max" : 0.0101716395
        },
        "feet" : {
          "estimated_diameter_min" : 24.0181762721,
          "estimated_diameter_max" : 53.70627484
        }
      },
      "is_potentially_hazardous_asteroid" : false,
      "close_approach_data" : [ {
        "close_approach_date" : "1997-04-15",
        "epoch_date_close_approach" : 861087600000,
        "relative_velocity" : {
          "kilometers_per_second" : "16.1154798724",
          "kilometers_per_hour" : "58015.7275407617",
          "miles_per_hour" : "36048.7169266472"
        },
        "miss_distance" : {
          "astronomical" : "0.299049487",
          "lunar" : "116.3302536011",
          "kilometers" : "44737168",
          "miles" : "27798388"
        },
        "orbiting_body" : "Earth"
      } ],
      "orbital_data" : {
        "orbit_id" : "6",
        "orbit_determination_date" : "2017-04-06 09:08:50",
        "orbit_uncertainty" : "7",
        "minimum_orbit_intersection" : ".00143376",
        "jupiter_tisserand_invariant" : "5.698",
        "epoch_osculation" : "2458000.5",
        "eccentricity" : ".2560415798634784",
        "semi_major_axis" : "1.079824459362061",
        "inclination" : "3.378245231254574",
        "ascending_node_longitude" : "197.0749698219696",
        "orbital_period" : "409.8530465854731",
        "perihelion_distance" : ".8033444988117726",
        "perihelion_argument" : "266.233141969897",
        "aphelion_distance" : "1.35630441991235",
        "perihelion_time" : "2457859.626166029703",
        "mean_anomaly" : "123.7384488216328",
        "mean_motion" : ".8783636061734716",
        "equinox" : "J2000"
      }
    }, {
      "links" : {
        "self" : "https://api.nasa.gov/neo/rest/v1/neo/3670633?api_key=t0TVs3DtDT2H8Oy2Zy8m2eVrNsAVKAexjcZXUckd"
      },
      "neo_reference_id" : "3670633",
      "name" : "(2014 JR24)",
      "nasa_jpl_url" : "http://ssd.jpl.nasa.gov/sbdb.cgi?sstr=3670633",
      "absolute_magnitude_h" : 29.3,
      "estimated_diameter" : {
        "kilometers" : {
          "estimated_diameter_min" : 0.0036690614,
          "estimated_diameter_max" : 0.0082042706
        },
        "meters" : {
          "estimated_diameter_min" : 3.6690613753,
          "estimated_diameter_max" : 8.2042706488
        },
        "miles" : {
          "estimated_diameter_min" : 0.0022798483,
          "estimated_diameter_max" : 0.0050978959
        },
        "feet" : {
          "estimated_diameter_min" : 12.0376033226,
          "estimated_diameter_max" : 26.9168993155
        }
      },
      "is_potentially_hazardous_asteroid" : false,
      "close_approach_data" : [ {
        "close_approach_date" : "1997-04-15",
        "epoch_date_close_approach" : 861087600000,
        "relative_velocity" : {
          "kilometers_per_second" : "10.9979726963",
          "kilometers_per_hour" : "39592.7017065",
          "miles_per_hour" : "24601.3651242416"
        },
        "miss_distance" : {
          "astronomical" : "0.2455299571",
          "lunar" : "95.5111541748",
          "kilometers" : "36730756",
          "miles" : "22823434"
        },
        "orbiting_body" : "Earth"
      } ],
      "orbital_data" : {
        "orbit_id" : "7",
        "orbit_determination_date" : "2017-04-06 08:40:37",
        "orbit_uncertainty" : "5",
        "minimum_orbit_intersection" : ".000623923",
        "jupiter_tisserand_invariant" : "5.778",
        "epoch_osculation" : "2458000.5",
        "eccentricity" : ".1183080035057787",
        "semi_major_axis" : "1.06646141731347",
        "inclination" : ".930028978368846",
        "ascending_node_longitude" : "48.88911217608133",
        "orbital_period" : "402.2686138247686",
        "perihelion_distance" : ".9402904962151699",
        "perihelion_argument" : "246.4403420421864",
        "aphelion_distance" : "1.192632338411769",
        "perihelion_time" : "2458054.784009496554",
        "mean_anomaly" : "311.4199150837248",
        "mean_motion" : ".8949244053050057",
        "equinox" : "J2000"
      }
    } ]
  }
}